YAOGAN-36 03C           
1 54376U 22160E   26068.83757613 -.00000161  00000+0 -51188-5 0  9995
2 54376  35.0077 244.2786 0011452 217.8015 142.1896 15.22991504182896
TRANSPORTER-13 OBJECT M 
1 63221U 25052M   26068.70428271  .00005606  00000+0  25482-3 0  9991
2 63221  97.4005 322.6064 0004913 116.6212 243.5528 15.21138155 54718
